1 42025U 17008CF  19045.42964718  .00001588  00000-0  66448-4 0  9993
2 42025  97.4246 113.8739 0007159 213.6796 146.3988 15.25035450110860
1 42025U 17008CF  19045.75771920  .00001565  00000-0  65543-4 0  9990
2 42025  97.4246 114.1993 0007175 212.6623 147.4171 15.25036329110910
1 42025U 17008CF  19046.15140577  .00001445  00000-0  60722-4 0  9994
2 42025  97.4244 114.5897 0007217 211.1002 148.9809 15.25036737110970
1 42025U 17008CF  19046.74193517  .00001321  00000-0  55771-4 0  9992
2 42025  97.4244 115.1753 0007256 208.7443 151.3396 15.25037602111064
1 42025U 17008CF  19047.79176223  .00001339  00000-0  56478-4 0  9997
2 42025  97.4241 116.2164 0007364 204.6626 155.4261 15.25040854111224
1 42025U 17008CF  19047.92298998  .00001428  00000-0  60047-4 0  9992
2 42025  97.4241 116.3467 0007368 204.3643 155.7247 15.25041873111242
1 42025U 17008CF  19048.84158673  .00001443  00000-0  60613-4 0  9995
2 42025  97.4240 117.2576 0007472 200.9757 159.1175 15.25044773111381
1 42025U 17008CF  19049.76018225  .00001446  00000-0  60743-4 0  9992
2 42025  97.4239 118.1685 0007570 197.5424 162.5553 15.25047499111523
1 42025U 17008CF  19050.15386563  .00001388  00000-0  58426-4 0  9990
2 42025  97.4238 118.5589 0007604 196.1107 163.9891 15.25048308111586
1 42025U 17008CF  19050.81000429  .00001361  00000-0  57349-4 0  9991
2 42025  97.4237 119.2096 0007663 193.6697 166.4334 15.25049859111680
1 42025U 17008CF  19051.40052794  .00001439  00000-0  60440-4 0  9991
2 42025  97.4236 119.7952 0007722 191.4900 168.6163 15.25051928111778
1 42025U 17008CF  19051.85982327  .00001539  00000-0  64424-4 0  9991
2 42025  97.4235 120.2507 0007770 189.8840 170.2246 15.25053892111848
1 42025U 17008CF  19052.45034540  .00001617  00000-0  67564-4 0  9998
2 42025  97.4234 120.8362 0007826 187.8351 172.2766 15.25056123111938
1 42025U 17008CF  19052.77841280  .00001636  00000-0  68323-4 0  9995
2 42025  97.4233 121.1615 0007857 186.6618 173.4516 15.25057320111980
1 42025U 17008CF  19052.90964014  .00001557  00000-0  65138-4 0  9994
2 42025  97.4233 121.2916 0007880 186.1872 173.9270 15.25057163112009
1 42025U 17008CF  19053.82822946  .00001354  00000-0  57038-4 0  9998
2 42025  97.4231 122.2025 0007967 182.8707 177.2486 15.25058439112143
1 42025U 17008CF  19053.89384302  .00001332  00000-0  56161-4 0  9996
2 42025  97.4231 122.2675 0007983 182.6395 177.4802 15.25058440112150
1 42025U 17008CF  19054.87804266  .00001495  00000-0  62649-4 0  9999
2 42025  97.4229 123.2435 0008075 179.1770 180.9483 15.25062221112306
1 42025U 17008CF  19055.14049559  .00001506  00000-0  63090-4 0  9990
2 42025  97.4229 123.5038 0008092 178.3450 181.7816 15.25063095112346
1 42025U 17008CF  19055.86224146  .00001399  00000-0  58828-4 0  9999
2 42025  97.4227 124.2194 0008165 175.8934 184.2372 15.25064421112456
1 42025U 17008CF  19056.64959917  .00001374  00000-0  57797-4 0  9994
2 42025  97.4227 125.0001 0008260 173.2982 186.8368 15.25066507112576
1 42025U 17008CF  19057.76502172  .00001361  00000-0  57303-4 0  9994
2 42025  97.4224 126.1061 0008364 169.4359 190.7056 15.25069168112744
1 42025U 17008CF  19058.81482858  .00001470  00000-0  61651-4 0  9991
2 42025  97.4222 127.1470 0008465 165.8364 194.3113 15.25072431112904
1 42025U 17008CF  19058.94605392  .00001553  00000-0  64970-4 0  9994
2 42025  97.4222 127.2772 0008475 165.4676 194.6807 15.25073320112926
1 42025U 17008CF  19059.86463198  .00001818  00000-0  75538-4 0  9998
2 42025  97.4221 128.1880 0008562 162.4795 197.6740 15.25077485113062
1 42025U 17008CF  19060.19269530  .00001783  00000-0  74121-4 0  9998
2 42025  97.4220 128.5132 0008598 161.4781 198.6771 15.25078266113117
1 42025U 17008CF  19060.71759701  .00001735  00000-0  72217-4 0  9991
2 42025  97.4220 129.0336 0008639 159.7679 200.3903 15.25079295113190
1 42025U 17008CF  19061.17688508  .00001656  00000-0  69067-4 0  9999
2 42025  97.4218 129.4890 0008695 158.2927 201.8681 15.25080183113263
1 42025U 17008CF  19061.76739829  .00001417  00000-0  59506-4 0  9999
2 42025  97.4217 130.0744 0008751 156.3984 203.7657 15.25080413113353
1 42025U 17008CF  19062.94842175  .00001431  00000-0  60042-4 0  9992
2 42025  97.4215 131.2453 0008859 152.7704 207.4000 15.25083848113538
1 42025U 17008CF  19063.14525858  .00001428  00000-0  59925-4 0  9995
2 42025  97.4215 131.4405 0008876 152.1696 208.0019 15.25084475113567
1 42025U 17008CF  19063.73576912  .00001345  00000-0  56612-4 0  9995
2 42025  97.4214 132.0258 0008949 150.3279 209.8468 15.25085767113659
1 42025U 17008CF  19064.32627910  .00001254  00000-0  52980-4 0  9999
2 42025  97.4212 132.6112 0009003 148.5160 211.6618 15.25086957113742
1 42025U 17008CF  19064.71995218  .00001180  00000-0  50003-4 0  9993
2 42025  97.4212 133.0015 0009032 147.2782 212.9017 15.25087673113807
1 42025U 17008CF  19065.76974479  .00001206  00000-0  51064-4 0  9992
2 42025  97.4209 134.0423 0009105 143.9683 216.2170 15.25090956113963
1 42025U 17008CF  19065.90096880  .00001172  00000-0  49708-4 0  9993
2 42025  97.4209 134.1724 0009116 143.5499 216.6361 15.25091117113989
1 42025U 17008CF  19066.49147429  .00001501  00000-0  62812-4 0  9991
2 42025  97.4208 134.7578 0009163 141.7892 218.3997 15.25095118114070
1 42025U 17008CF  19066.95075713  .00001477  00000-0  61860-4 0  9992
2 42025  97.4207 135.2132 0009189 140.3771 219.8140 15.25096309114147
1 42025U 17008CF  19067.14759237  .00001487  00000-0  62263-4 0  9993
2 42025  97.4207 135.4083 0009196 139.7584 220.4336 15.25096994114174
1 42025U 17008CF  19068.13176804  .00001218  00000-0  51532-4 0  9995
2 42025  97.4205 136.3839 0009282 137.0119 223.1846 15.25099365114320
1 42025U 17008CF  19068.65666145  .00001197  00000-0  50688-4 0  9991
2 42025  97.4204 136.9043 0009322 135.4165 224.7825 15.25100517114405
1 42025U 17008CF  19069.18155399  .00001169  00000-0  49564-4 0  9994
2 42025  97.4203 137.4247 0009354 133.8146 226.3867 15.25101743114486
1 42025U 17008CF  19069.77205795  .00001243  00000-0  52487-4 0  9996
2 42025  97.4202 138.0100 0009395 131.9710 228.2330 15.25103484114571
1 42025U 17008CF  19070.49378400  .00001029  00000-0  43972-4 0  9992
2 42025  97.4201 138.7254 0009450 129.8214 230.3857 15.25104035114687
1 42025U 17008CF  19071.74040061  .00000924  00000-0  39751-4 0  9993
2 42025  97.4200 139.9613 0009516 126.0194 234.1928 15.25106155114874
1 42025U 17008CF  19072.72456937  .00001141  00000-0  48431-4 0  9992
2 42025  97.4198 140.9368 0009568 123.0816 237.1341 15.25109610115023
1 42025U 17008CF  19073.11823653  .00001114  00000-0  47338-4 0  9994
2 42025  97.4197 141.3271 0009581 121.9209 238.2961 15.25110363115081
1 42025U 17008CF  19073.83995907  .00001093  00000-0  46514-4 0  9996
2 42025  97.4196 142.0425 0009609 119.7886 240.4308 15.25111876115198
1 42025U 17008CF  19074.16801411  .00001140  00000-0  48379-4 0  9993
2 42025  97.4195 142.3677 0009618 118.7936 241.4268 15.25113010115248
1 42025U 17008CF  19074.69290211  .00001210  00000-0  51181-4 0  9994
2 42025  97.4195 142.8880 0009655 117.2798 242.9425 15.25114668115320
1 42025U 17008CF  19075.74267583  .00001341  00000-0  56377-4 0  9994
2 42025  97.4193 143.9286 0009696 114.1040 246.1213 15.25118245115484
1 42025U 17008CF  19076.66122263  .00001835  00000-0  76090-4 0  9993
2 42025  97.4191 144.8389 0009712 111.2917 248.9359 15.25124660115621
1 42025U 17008CF  19077.18610691  .00001782  00000-0  73956-4 0  9997
2 42025  97.4189 145.3592 0009708 109.7924 250.4362 15.25126186115701
1 42025U 17008CF  19077.64538008  .00001824  00000-0  75624-4 0  9990
2 42025  97.4188 145.8145 0009731 108.4711 251.7585 15.25128047115771
1 42025U 17008CF  19078.43270483  .00001698  00000-0  70592-4 0  9996
2 42025  97.4187 146.5948 0009754 105.9758 254.2555 15.25130071115895
1 42025U 17008CF  19079.61368880  .00001529  00000-0  63857-4 0  9995
2 42025  97.4186 147.7652 0009781 102.7983 257.4348 15.25133362116076
1 42025U 17008CF  19080.86028084  .00001390  00000-0  58311-4 0  9998
2 42025  97.4182 149.0008 0009813  99.3229 260.9119 15.25136542116261
1 42025U 17008CF  19081.71321083  .00001356  00000-0  56947-4 0  9993
2 42025  97.4182 149.8462 0009793  96.7083 263.5269 15.25138790116395
1 42025U 17008CF  19082.10686958  .00001448  00000-0  60626-4 0  9993
2 42025  97.4181 150.2365 0009765  95.7039 264.5313 15.25140566116453
1 42025U 17008CF  19082.82857770  .00001124  00000-0  47701-4 0  9994
2 42025  97.4181 150.9515 0009772  93.2556 266.9800 15.25140830116565
1 42025U 17008CF  19083.15662592  .00001220  00000-0  51520-4 0  9998
2 42025  97.4179 151.2770 0009765  92.5895 267.6460 15.25142382116619
1 42025U 17008CF  19083.81272274  .00001264  00000-0  53268-4 0  9994
2 42025  97.4179 151.9272 0009771  90.6536 269.5821 15.25144383116717
1 42025U 17008CF  19084.20638055  .00001282  00000-0  53998-4 0  9991
2 42025  97.4178 152.3173 0009764  89.6184 270.6173 15.25145515116777
1 42025U 17008CF  19084.79686665  .00001563  00000-0  65186-4 0  9999
2 42025  97.4177 152.9026 0009754  87.8709 272.3646 15.25148604116867
1 42025U 17008CF  19085.38735231  .00001645  00000-0  68444-4 0  9990
2 42025  97.4176 153.4877 0009744  86.1824 274.0528 15.25150503116954
1 42025U 17008CF  19085.84661906  .00001465  00000-0  61272-4 0  9990
2 42025  97.4175 153.9429 0009736  84.8492 275.3856 15.25150644117021
1 42025U 17008CF  19086.43710289  .00001472  00000-0  61556-4 0  9998
2 42025  97.4175 154.5281 0009727  83.1832 277.0513 15.25152808117117
1 42025U 17008CF  19086.89636704  .00001643  00000-0  68368-4 0  9995
2 42025  97.4173 154.9833 0009706  81.7624 278.4714 15.25155205117181
1 42025U 17008CF  19087.55245865  .00001844  00000-0  76382-4 0  9991
2 42025  97.4173 155.6334 0009682  79.8616 280.3714 15.25158027117285
1 42025U 17008CF  19087.74928586  .00001896  00000-0  78429-4 0  9991
2 42025  97.4173 155.8285 0009680  79.2598 280.9729 15.25158892117319
1 42025U 17008CF  19087.94611364  .00001725  00000-0  71643-4 0  9998
2 42025  97.4172 156.0236 0009669  78.7437 281.4887 15.25158483117340
